[{"OBJECT_NAME":"ONEWEB-0648","OBJECT_ID":"2023-029R","EPOCH":"2026-03-09T16:51:40.923072","MEAN_MOTION":13.14502387,"ECCENTRICITY":0.00019561,"INCLINATION":87.8983,"RA_OF_ASC_NODE":309.5545,"ARG_OF_PERICENTER":110.5839,"MEAN_ANOMALY":249.5501,"EPHEMERIS_TYPE":0,"CLASSIFICATION_TYPE":"U","NORAD_CAT_ID":55811,"ELEMENT_SET_NO":999,"REV_AT_EPOCH":14632,"BSTAR":-0.0003797452,"MEAN_MOTION_DOT":-1.28e-6,"MEAN_MOTION_DDOT":0},{"OBJECT_NAME":"SL-14 DEB","OBJECT_ID":"1991-056DG","EPOCH":"2026-03-09T03:45:27.615168","MEAN_MOTION":13.11658689,"ECCENTRICITY":0.00382754,"INCLINATION":82.6145,"RA_OF_ASC_NODE":240.7072,"ARG_OF_PERICENTER":167.8252,"MEAN_ANOMALY":192.3802,"EPHEMERIS_TYPE":0,"CLASSIFICATION_TYPE":"U","NORAD_CAT_ID":47082,"ELEMENT_SET_NO":999,"REV_AT_EPOCH":25556,"BSTAR":0.0033210461,"MEAN_MOTION_DOT":1.198e-5,"MEAN_MOTION_DDOT":0}]
